STARLINK-3536           
1 51888U 22022AN  26068.03756298  .00000038  00000+0  20456-4 0  9991
2 51888  53.2188   2.0467 0001230  97.5151 262.5981 15.08838759223152
LEMUR-2-STELLA          
1 60533U 24149BT  26068.72657350  .00013685  00000+0  85776-3 0  9992
2 60533  97.6764 150.9122 0001299  95.1117 265.0260 15.09464064 85488
